{"type":"FeatureCollection","name":"admdongkor_sido_labels_ver20260701","features":[{"type":"Feature","properties":{"code":"11","name":"서울특별시","full_name":"서울특별시","sido_code":"11","sgg_code":"11110","admin_level":"sido","source":"vuski/admdongkor","source_version":"ver20260701","label_method":"largest-part pole_of_inaccessibility"},"geometry":{"type":"Point","coordinates":[127.01425893713379,37.55363111706542]}},{"type":"Feature","properties":{"code":"12","name":"전남광주통합특별시","full_name":"전남광주통합특별시","sido_code":"12","sgg_code":"12210","admin_level":"sido","source":"vuski/admdongkor","source_version":"ver20260701","label_method":"largest-part pole_of_inaccessibility"},"geometry":{"type":"Point","coordinates":[126.84439669216918,35.00249564859009]}},{"type":"Feature","properties":{"code":"26","name":"부산광역시","full_name":"부산광역시","sido_code":"26","sgg_code":"26110","admin_level":"sido","source":"vuski/admdongkor","source_version":"ver20260701","label_method":"largest-part pole_of_inaccessibility"},"geometry":{"type":"Point","coordinates":[129.14954645458982,35.238647521972645]}},{"type":"Feature","properties":{"code":"27","name":"대구광역시","full_name":"대구광역시","sido_code":"27","sgg_code":"27110","admin_level":"sido","source":"vuski/admdongkor","source_version":"ver20260701","label_method":"largest-part pole_of_inaccessibility"},"geometry":{"type":"Point","coordinates":[128.61472252557374,35.86662741143799]}},{"type":"Feature","properties":{"code":"28","name":"인천광역시","full_name":"인천광역시","sido_code":"28","sgg_code":"28125","admin_level":"sido","source":"vuski/admdongkor","source_version":"ver20260701","label_method":"largest-part pole_of_inaccessibility"},"geometry":{"type":"Point","coordinates":[126.69040698400877,37.44459766955565]}},{"type":"Feature","properties":{"code":"30","name":"대전광역시","full_name":"대전광역시","sido_code":"30","sgg_code":"30110","admin_level":"sido","source":"vuski/admdongkor","source_version":"ver20260701","label_method":"largest-part pole_of_inaccessibility"},"geometry":{"type":"Point","coordinates":[127.40920653137208,36.36063145373535]}},{"type":"Feature","properties":{"code":"31","name":"울산광역시","full_name":"울산광역시","sido_code":"31","sgg_code":"31110","admin_level":"sido","source":"vuski/admdongkor","source_version":"ver20260701","label_method":"largest-part pole_of_inaccessibility"},"geometry":{"type":"Point","coordinates":[129.20476320117183,35.55389493945313]}},{"type":"Feature","properties":{"code":"36","name":"세종특별자치시","full_name":"세종특별자치시","sido_code":"36","sgg_code":"36110","admin_level":"sido","source":"vuski/admdongkor","source_version":"ver20260701","label_method":"largest-part pole_of_inaccessibility"},"geometry":{"type":"Point","coordinates":[127.27659416638186,36.5032028499756]}},{"type":"Feature","properties":{"code":"41","name":"경기도","full_name":"경기도","sido_code":"41","sgg_code":"41111","admin_level":"sido","source":"vuski/admdongkor","source_version":"ver20260701","label_method":"largest-part pole_of_inaccessibility"},"geometry":{"type":"Point","coordinates":[127.42489193334964,37.36603271166993]}},{"type":"Feature","properties":{"code":"43","name":"충청북도","full_name":"충청북도","sido_code":"43","sgg_code":"43130","admin_level":"sido","source":"vuski/admdongkor","source_version":"ver20260701","label_method":"largest-part pole_of_inaccessibility"},"geometry":{"type":"Point","coordinates":[127.66508275610353,36.81542818041992]}},{"type":"Feature","properties":{"code":"44","name":"충청남도","full_name":"충청남도","sido_code":"44","sgg_code":"44131","admin_level":"sido","source":"vuski/admdongkor","source_version":"ver20260701","label_method":"largest-part pole_of_inaccessibility"},"geometry":{"type":"Point","coordinates":[126.83343495150758,36.53425734005736]}},{"type":"Feature","properties":{"code":"47","name":"경상북도","full_name":"경상북도","sido_code":"47","sgg_code":"47111","admin_level":"sido","source":"vuski/admdongkor","source_version":"ver20260701","label_method":"largest-part pole_of_inaccessibility"},"geometry":{"type":"Point","coordinates":[128.98218319921878,36.62413528515626]}},{"type":"Feature","properties":{"code":"48","name":"경상남도","full_name":"경상남도","sido_code":"48","sgg_code":"48170","admin_level":"sido","source":"vuski/admdongkor","source_version":"ver20260701","label_method":"largest-part pole_of_inaccessibility"},"geometry":{"type":"Point","coordinates":[127.98380025659178,35.39369013793945]}},{"type":"Feature","properties":{"code":"50","name":"제주특별자치도","full_name":"제주특별자치도","sido_code":"50","sgg_code":"50110","admin_level":"sido","source":"vuski/admdongkor","source_version":"ver20260701","label_method":"largest-part pole_of_inaccessibility"},"geometry":{"type":"Point","coordinates":[126.54675780816649,33.380858385925286]}},{"type":"Feature","properties":{"code":"51","name":"강원특별자치도","full_name":"강원특별자치도","sido_code":"51","sgg_code":"51110","admin_level":"sido","source":"vuski/admdongkor","source_version":"ver20260701","label_method":"largest-part pole_of_inaccessibility"},"geometry":{"type":"Point","coordinates":[128.31066178927608,37.73352669570923]}},{"type":"Feature","properties":{"code":"52","name":"전북특별자치도","full_name":"전북특별자치도","sido_code":"52","sgg_code":"52111","admin_level":"sido","source":"vuski/admdongkor","source_version":"ver20260701","label_method":"largest-part pole_of_inaccessibility"},"geometry":{"type":"Point","coordinates":[127.27858236489867,35.69580031289672]}}]}
