{"type":"FeatureCollection","name":"admdongkor_sgg_labels_ver20260701","features":[{"type":"Feature","properties":{"code":"11110","name":"종로구","full_name":"서울특별시 종로구","sido_code":"11","sgg_code":"11110","admin_level":"sgg","source":"vuski/admdongkor","source_version":"ver20260701","label_method":"largest-part pole_of_inaccessibility"},"geometry":{"type":"Point","coordinates":[126.96876931054688,37.60927452539063]}},{"type":"Feature","properties":{"code":"11140","name":"중구","full_name":"서울특별시 중구","sido_code":"11","sgg_code":"11140","admin_level":"sgg","source":"vuski/admdongkor","source_version":"ver20260701","label_method":"largest-part pole_of_inaccessibility"},"geometry":{"type":"Point","coordinates":[127.00807996679688,37.55924161523437]}},{"type":"Feature","properties":{"code":"11170","name":"용산구","full_name":"서울특별시 용산구","sido_code":"11","sgg_code":"11170","admin_level":"sgg","source":"vuski/admdongkor","source_version":"ver20260701","label_method":"largest-part pole_of_inaccessibility"},"geometry":{"type":"Point","coordinates":[126.97672795605467,37.53044949902343]}},{"type":"Feature","properties":{"code":"11200","name":"성동구","full_name":"서울특별시 성동구","sido_code":"11","sgg_code":"11200","admin_level":"sgg","source":"vuski/admdongkor","source_version":"ver20260701","label_method":"largest-part pole_of_inaccessibility"},"geometry":{"type":"Point","coordinates":[127.04114515820312,37.553486505859375]}},{"type":"Feature","properties":{"code":"11215","name":"광진구","full_name":"서울특별시 광진구","sido_code":"11","sgg_code":"11215","admin_level":"sgg","source":"vuski/admdongkor","source_version":"ver20260701","label_method":"largest-part pole_of_inaccessibility"},"geometry":{"type":"Point","coordinates":[127.08780301171875,37.54554466015625]}},{"type":"Feature","properties":{"code":"11230","name":"동대문구","full_name":"서울특별시 동대문구","sido_code":"11","sgg_code":"11230","admin_level":"sgg","source":"vuski/admdongkor","source_version":"ver20260701","label_method":"largest-part pole_of_inaccessibility"},"geometry":{"type":"Point","coordinates":[127.0565950595703,37.58344293457031]}},{"type":"Feature","properties":{"code":"11260","name":"중랑구","full_name":"서울특별시 중랑구","sido_code":"11","sgg_code":"11260","admin_level":"sgg","source":"vuski/admdongkor","source_version":"ver20260701","label_method":"largest-part pole_of_inaccessibility"},"geometry":{"type":"Point","coordinates":[127.09099277734376,37.59941001171876]}},{"type":"Feature","properties":{"code":"11290","name":"성북구","full_name":"서울특별시 성북구","sido_code":"11","sgg_code":"11290","admin_level":"sgg","source":"vuski/admdongkor","source_version":"ver20260701","label_method":"largest-part pole_of_inaccessibility"},"geometry":{"type":"Point","coordinates":[127.01707317871094,37.597016305664056]}},{"type":"Feature","properties":{"code":"11305","name":"강북구","full_name":"서울특별시 강북구","sido_code":"11","sgg_code":"11305","admin_level":"sgg","source":"vuski/admdongkor","source_version":"ver20260701","label_method":"largest-part pole_of_inaccessibility"},"geometry":{"type":"Point","coordinates":[127.02247632910158,37.62840738183593]}},{"type":"Feature","properties":{"code":"11320","name":"도봉구","full_name":"서울특별시 도봉구","sido_code":"11","sgg_code":"11320","admin_level":"sgg","source":"vuski/admdongkor","source_version":"ver20260701","label_method":"largest-part pole_of_inaccessibility"},"geometry":{"type":"Point","coordinates":[127.03340583789063,37.661860986328115]}},{"type":"Feature","properties":{"code":"11350","name":"노원구","full_name":"서울특별시 노원구","sido_code":"11","sgg_code":"11350","admin_level":"sgg","source":"vuski/admdongkor","source_version":"ver20260701","label_method":"largest-part pole_of_inaccessibility"},"geometry":{"type":"Point","coordinates":[127.07070727685547,37.669892682128896]}},{"type":"Feature","properties":{"code":"11380","name":"은평구","full_name":"서울특별시 은평구","sido_code":"11","sgg_code":"11380","admin_level":"sgg","source":"vuski/admdongkor","source_version":"ver20260701","label_method":"largest-part pole_of_inaccessibility"},"geometry":{"type":"Point","coordinates":[126.93011784326168,37.62595151318358]}},{"type":"Feature","properties":{"code":"11410","name":"서대문구","full_name":"서울특별시 서대문구","sido_code":"11","sgg_code":"11410","admin_level":"sgg","source":"vuski/admdongkor","source_version":"ver20260701","label_method":"largest-part pole_of_inaccessibility"},"geometry":{"type":"Point","coordinates":[126.93792320605468,37.57594143066406]}},{"type":"Feature","properties":{"code":"11440","name":"마포구","full_name":"서울특별시 마포구","sido_code":"11","sgg_code":"11440","admin_level":"sgg","source":"vuski/admdongkor","source_version":"ver20260701","label_method":"largest-part pole_of_inaccessibility"},"geometry":{"type":"Point","coordinates":[126.88738110644532,37.568851204101556]}},{"type":"Feature","properties":{"code":"11470","name":"양천구","full_name":"서울특별시 양천구","sido_code":"11","sgg_code":"11470","admin_level":"sgg","source":"vuski/admdongkor","source_version":"ver20260701","label_method":"largest-part pole_of_inaccessibility"},"geometry":{"type":"Point","coordinates":[126.86650311621092,37.518292036132806]}},{"type":"Feature","properties":{"code":"11500","name":"강서구","full_name":"서울특별시 강서구","sido_code":"11","sgg_code":"11500","admin_level":"sgg","source":"vuski/admdongkor","source_version":"ver20260701","label_method":"largest-part pole_of_inaccessibility"},"geometry":{"type":"Point","coordinates":[126.8143746772461,37.567646422363275]}},{"type":"Feature","properties":{"code":"11530","name":"구로구","full_name":"서울특별시 구로구","sido_code":"11","sgg_code":"11530","admin_level":"sgg","source":"vuski/admdongkor","source_version":"ver20260701","label_method":"largest-part pole_of_inaccessibility"},"geometry":{"type":"Point","coordinates":[126.88154584765624,37.49901769921875]}},{"type":"Feature","properties":{"code":"11545","name":"금천구","full_name":"서울특별시 금천구","sido_code":"11","sgg_code":"11545","admin_level":"sgg","source":"vuski/admdongkor","source_version":"ver20260701","label_method":"largest-part pole_of_inaccessibility"},"geometry":{"type":"Point","coordinates":[126.900721140625,37.46217998437499]}},{"type":"Feature","properties":{"code":"11560","name":"영등포구","full_name":"서울특별시 영등포구","sido_code":"11","sgg_code":"11560","admin_level":"sgg","source":"vuski/admdongkor","source_version":"ver20260701","label_method":"largest-part pole_of_inaccessibility"},"geometry":{"type":"Point","coordinates":[126.90773277441406,37.52234163378907]}},{"type":"Feature","properties":{"code":"11590","name":"동작구","full_name":"서울특별시 동작구","sido_code":"11","sgg_code":"11590","admin_level":"sgg","source":"vuski/admdongkor","source_version":"ver20260701","label_method":"largest-part pole_of_inaccessibility"},"geometry":{"type":"Point","coordinates":[126.93929622265627,37.503904003906264]}},{"type":"Feature","properties":{"code":"11620","name":"관악구","full_name":"서울특별시 관악구","sido_code":"11","sgg_code":"11620","admin_level":"sgg","source":"vuski/admdongkor","source_version":"ver20260701","label_method":"largest-part pole_of_inaccessibility"},"geometry":{"type":"Point","coordinates":[126.94387037695311,37.46776259960937]}},{"type":"Feature","properties":{"code":"11650","name":"서초구","full_name":"서울특별시 서초구","sido_code":"11","sgg_code":"11650","admin_level":"sgg","source":"vuski/admdongkor","source_version":"ver20260701","label_method":"largest-part pole_of_inaccessibility"},"geometry":{"type":"Point","coordinates":[127.00764675097656,37.48880785449218]}},{"type":"Feature","properties":{"code":"11680","name":"강남구","full_name":"서울특별시 강남구","sido_code":"11","sgg_code":"11680","admin_level":"sgg","source":"vuski/admdongkor","source_version":"ver20260701","label_method":"largest-part pole_of_inaccessibility"},"geometry":{"type":"Point","coordinates":[127.0464707324219,37.50949950976563]}},{"type":"Feature","properties":{"code":"11710","name":"송파구","full_name":"서울특별시 송파구","sido_code":"11","sgg_code":"11710","admin_level":"sgg","source":"vuski/admdongkor","source_version":"ver20260701","label_method":"largest-part pole_of_inaccessibility"},"geometry":{"type":"Point","coordinates":[127.12046983447263,37.505314900878915]}},{"type":"Feature","properties":{"code":"11740","name":"강동구","full_name":"서울특별시 강동구","sido_code":"11","sgg_code":"11740","admin_level":"sgg","source":"vuski/admdongkor","source_version":"ver20260701","label_method":"largest-part pole_of_inaccessibility"},"geometry":{"type":"Point","coordinates":[127.14016352929687,37.54870336523439]}},{"type":"Feature","properties":{"code":"12110","name":"목포시","full_name":"전남광주통합특별시 목포시","sido_code":"12","sgg_code":"12110","admin_level":"sgg","source":"vuski/admdongkor","source_version":"ver20260701","label_method":"largest-part pole_of_inaccessibility"},"geometry":{"type":"Point","coordinates":[126.41166419140626,34.81746424609375]}},{"type":"Feature","properties":{"code":"12130","name":"여수시","full_name":"전남광주통합특별시 여수시","sido_code":"12","sgg_code":"12130","admin_level":"sgg","source":"vuski/admdongkor","source_version":"ver20260701","label_method":"largest-part pole_of_inaccessibility"},"geometry":{"type":"Point","coordinates":[127.69734210107421,34.794217372558606]}},{"type":"Feature","properties":{"code":"12150","name":"순천시","full_name":"전남광주통합특별시 순천시","sido_code":"12","sgg_code":"12150","admin_level":"sgg","source":"vuski/admdongkor","source_version":"ver20260701","label_method":"largest-part pole_of_inaccessibility"},"geometry":{"type":"Point","coordinates":[127.42046910363767,34.98293051159666]}},{"type":"Feature","properties":{"code":"12170","name":"나주시","full_name":"전남광주통합특별시 나주시","sido_code":"12","sgg_code":"12170","admin_level":"sgg","source":"vuski/admdongkor","source_version":"ver20260701","label_method":"largest-part pole_of_inaccessibility"},"geometry":{"type":"Point","coordinates":[126.79441530078125,34.973387464843746]}},{"type":"Feature","properties":{"code":"12190","name":"광양시","full_name":"전남광주통합특별시 광양시","sido_code":"12","sgg_code":"12190","admin_level":"sgg","source":"vuski/admdongkor","source_version":"ver20260701","label_method":"largest-part pole_of_inaccessibility"},"geometry":{"type":"Point","coordinates":[127.65630221411132,35.01657295483399]}},{"type":"Feature","properties":{"code":"12210","name":"동구","full_name":"전남광주통합특별시 동구","sido_code":"12","sgg_code":"12210","admin_level":"sgg","source":"vuski/admdongkor","source_version":"ver20260701","label_method":"largest-part pole_of_inaccessibility"},"geometry":{"type":"Point","coordinates":[126.9539302919922,35.11351754589845]}},{"type":"Feature","properties":{"code":"12240","name":"서구","full_name":"전남광주통합특별시 서구","sido_code":"12","sgg_code":"12240","admin_level":"sgg","source":"vuski/admdongkor","source_version":"ver20260701","label_method":"largest-part pole_of_inaccessibility"},"geometry":{"type":"Point","coordinates":[126.85663590771482,35.14508183349611]}},{"type":"Feature","properties":{"code":"12270","name":"남구","full_name":"전남광주통합특별시 남구","sido_code":"12","sgg_code":"12270","admin_level":"sgg","source":"vuski/admdongkor","source_version":"ver20260701","label_method":"largest-part pole_of_inaccessibility"},"geometry":{"type":"Point","coordinates":[126.8957228227539,35.09989534521483]}},{"type":"Feature","properties":{"code":"12300","name":"북구","full_name":"전남광주통합특별시 북구","sido_code":"12","sgg_code":"12300","admin_level":"sgg","source":"vuski/admdongkor","source_version":"ver20260701","label_method":"largest-part pole_of_inaccessibility"},"geometry":{"type":"Point","coordinates":[126.90584251269533,35.20719106738281]}},{"type":"Feature","properties":{"code":"12330","name":"광산구","full_name":"전남광주통합특별시 광산구","sido_code":"12","sgg_code":"12330","admin_level":"sgg","source":"vuski/admdongkor","source_version":"ver20260701","label_method":"largest-part pole_of_inaccessibility"},"geometry":{"type":"Point","coordinates":[126.76304700073243,35.16624355541994]}},{"type":"Feature","properties":{"code":"12710","name":"담양군","full_name":"전남광주통합특별시 담양군","sido_code":"12","sgg_code":"12710","admin_level":"sgg","source":"vuski/admdongkor","source_version":"ver20260701","label_method":"largest-part pole_of_inaccessibility"},"geometry":{"type":"Point","coordinates":[126.96776091210936,35.31729974414063]}},{"type":"Feature","properties":{"code":"12720","name":"곡성군","full_name":"전남광주통합특별시 곡성군","sido_code":"12","sgg_code":"12720","admin_level":"sgg","source":"vuski/admdongkor","source_version":"ver20260701","label_method":"largest-part pole_of_inaccessibility"},"geometry":{"type":"Point","coordinates":[127.28799141552734,35.185516251464854]}},{"type":"Feature","properties":{"code":"12730","name":"구례군","full_name":"전남광주통합특별시 구례군","sido_code":"12","sgg_code":"12730","admin_level":"sgg","source":"vuski/admdongkor","source_version":"ver20260701","label_method":"largest-part pole_of_inaccessibility"},"geometry":{"type":"Point","coordinates":[127.49494830834959,35.24932806567383]}},{"type":"Feature","properties":{"code":"12740","name":"고흥군","full_name":"전남광주통합특별시 고흥군","sido_code":"12","sgg_code":"12740","admin_level":"sgg","source":"vuski/admdongkor","source_version":"ver20260701","label_method":"largest-part pole_of_inaccessibility"},"geometry":{"type":"Point","coordinates":[127.31101063598632,34.58229258178712]}},{"type":"Feature","properties":{"code":"12750","name":"보성군","full_name":"전남광주통합특별시 보성군","sido_code":"12","sgg_code":"12750","admin_level":"sgg","source":"vuski/admdongkor","source_version":"ver20260701","label_method":"largest-part pole_of_inaccessibility"},"geometry":{"type":"Point","coordinates":[127.1368516842041,34.793881634155284]}},{"type":"Feature","properties":{"code":"12760","name":"화순군","full_name":"전남광주통합특별시 화순군","sido_code":"12","sgg_code":"12760","admin_level":"sgg","source":"vuski/admdongkor","source_version":"ver20260701","label_method":"largest-part pole_of_inaccessibility"},"geometry":{"type":"Point","coordinates":[126.99593757177733,34.98164951611328]}},{"type":"Feature","properties":{"code":"12770","name":"장흥군","full_name":"전남광주통합특별시 장흥군","sido_code":"12","sgg_code":"12770","admin_level":"sgg","source":"vuski/admdongkor","source_version":"ver20260701","label_method":"largest-part pole_of_inaccessibility"},"geometry":{"type":"Point","coordinates":[126.9173132084961,34.75541544287109]}},{"type":"Feature","properties":{"code":"12780","name":"강진군","full_name":"전남광주통합특별시 강진군","sido_code":"12","sgg_code":"12780","admin_level":"sgg","source":"vuski/admdongkor","source_version":"ver20260701","label_method":"largest-part pole_of_inaccessibility"},"geometry":{"type":"Point","coordinates":[126.77695415551759,34.69877704028319]}},{"type":"Feature","properties":{"code":"12790","name":"해남군","full_name":"전남광주통합특별시 해남군","sido_code":"12","sgg_code":"12790","admin_level":"sgg","source":"vuski/admdongkor","source_version":"ver20260701","label_method":"largest-part pole_of_inaccessibility"},"geometry":{"type":"Point","coordinates":[126.56722725097656,34.53606624121093]}},{"type":"Feature","properties":{"code":"12800","name":"영암군","full_name":"전남광주통합특별시 영암군","sido_code":"12","sgg_code":"12800","admin_level":"sgg","source":"vuski/admdongkor","source_version":"ver20260701","label_method":"largest-part pole_of_inaccessibility"},"geometry":{"type":"Point","coordinates":[126.62503766015625,34.809748605468755]}},{"type":"Feature","properties":{"code":"12810","name":"무안군","full_name":"전남광주통합특별시 무안군","sido_code":"12","sgg_code":"12810","admin_level":"sgg","source":"vuski/admdongkor","source_version":"ver20260701","label_method":"largest-part pole_of_inaccessibility"},"geometry":{"type":"Point","coordinates":[126.45783136218262,34.94320835241699]}},{"type":"Feature","properties":{"code":"12820","name":"함평군","full_name":"전남광주통합특별시 함평군","sido_code":"12","sgg_code":"12820","admin_level":"sgg","source":"vuski/admdongkor","source_version":"ver20260701","label_method":"largest-part pole_of_inaccessibility"},"geometry":{"type":"Point","coordinates":[126.52939500927734,35.11569379150391]}},{"type":"Feature","properties":{"code":"12830","name":"영광군","full_name":"전남광주통합특별시 영광군","sido_code":"12","sgg_code":"12830","admin_level":"sgg","source":"vuski/admdongkor","source_version":"ver20260701","label_method":"largest-part pole_of_inaccessibility"},"geometry":{"type":"Point","coordinates":[126.44865078027343,35.26871882714843]}},{"type":"Feature","properties":{"code":"12840","name":"장성군","full_name":"전남광주통합특별시 장성군","sido_code":"12","sgg_code":"12840","admin_level":"sgg","source":"vuski/admdongkor","source_version":"ver20260701","label_method":"largest-part pole_of_inaccessibility"},"geometry":{"type":"Point","coordinates":[126.78740347265625,35.32796104296875]}},{"type":"Feature","properties":{"code":"12850","name":"완도군","full_name":"전남광주통합특별시 완도군","sido_code":"12","sgg_code":"12850","admin_level":"sgg","source":"vuski/admdongkor","source_version":"ver20260701","label_method":"largest-part pole_of_inaccessibility"},"geometry":{"type":"Point","coordinates":[126.68834552075195,34.35802892407226]}},{"type":"Feature","properties":{"code":"12860","name":"진도군","full_name":"전남광주통합특별시 진도군","sido_code":"12","sgg_code":"12860","admin_level":"sgg","source":"vuski/admdongkor","source_version":"ver20260701","label_method":"largest-part pole_of_inaccessibility"},"geometry":{"type":"Point","coordinates":[126.27017873071289,34.470868216064446]}},{"type":"Feature","properties":{"code":"12870","name":"신안군","full_name":"전남광주통합특별시 신안군","sido_code":"12","sgg_code":"12870","admin_level":"sgg","source":"vuski/admdongkor","source_version":"ver20260701","label_method":"largest-part pole_of_inaccessibility"},"geometry":{"type":"Point","coordinates":[126.13120715722657,34.72365974121093]}},{"type":"Feature","properties":{"code":"26110","name":"중구","full_name":"부산광역시 중구","sido_code":"26","sgg_code":"26110","admin_level":"sgg","source":"vuski/admdongkor","source_version":"ver20260701","label_method":"largest-part pole_of_inaccessibility"},"geometry":{"type":"Point","coordinates":[129.0306254023437,35.10396282421875]}},{"type":"Feature","properties":{"code":"26140","name":"서구","full_name":"부산광역시 서구","sido_code":"26","sgg_code":"26140","admin_level":"sgg","source":"vuski/admdongkor","source_version":"ver20260701","label_method":"largest-part pole_of_inaccessibility"},"geometry":{"type":"Point","coordinates":[129.0127481713867,35.12148582958985]}},{"type":"Feature","properties":{"code":"26170","name":"동구","full_name":"부산광역시 동구","sido_code":"26","sgg_code":"26170","admin_level":"sgg","source":"vuski/admdongkor","source_version":"ver20260701","label_method":"largest-part pole_of_inaccessibility"},"geometry":{"type":"Point","coordinates":[129.03834395019533,35.12617048339844]}},{"type":"Feature","properties":{"code":"26200","name":"영도구","full_name":"부산광역시 영도구","sido_code":"26","sgg_code":"26200","admin_level":"sgg","source":"vuski/admdongkor","source_version":"ver20260701","label_method":"largest-part pole_of_inaccessibility"},"geometry":{"type":"Point","coordinates":[129.06185612695313,35.08300366210936]}},{"type":"Feature","properties":{"code":"26230","name":"부산진구","full_name":"부산광역시 부산진구","sido_code":"26","sgg_code":"26230","admin_level":"sgg","source":"vuski/admdongkor","source_version":"ver20260701","label_method":"largest-part pole_of_inaccessibility"},"geometry":{"type":"Point","coordinates":[129.04007289208982,35.16729500341797]}},{"type":"Feature","properties":{"code":"26260","name":"동래구","full_name":"부산광역시 동래구","sido_code":"26","sgg_code":"26260","admin_level":"sgg","source":"vuski/admdongkor","source_version":"ver20260701","label_method":"largest-part pole_of_inaccessibility"},"geometry":{"type":"Point","coordinates":[129.0679275961914,35.21083065673827]}},{"type":"Feature","properties":{"code":"26290","name":"남구","full_name":"부산광역시 남구","sido_code":"26","sgg_code":"26290","admin_level":"sgg","source":"vuski/admdongkor","source_version":"ver20260701","label_method":"largest-part pole_of_inaccessibility"},"geometry":{"type":"Point","coordinates":[129.09141215527347,35.12683554199219]}},{"type":"Feature","properties":{"code":"26320","name":"북구","full_name":"부산광역시 북구","sido_code":"26","sgg_code":"26320","admin_level":"sgg","source":"vuski/admdongkor","source_version":"ver20260701","label_method":"largest-part pole_of_inaccessibility"},"geometry":{"type":"Point","coordinates":[129.02257887988284,35.22077557714844]}},{"type":"Feature","properties":{"code":"26350","name":"해운대구","full_name":"부산광역시 해운대구","sido_code":"26","sgg_code":"26350","admin_level":"sgg","source":"vuski/admdongkor","source_version":"ver20260701","label_method":"largest-part pole_of_inaccessibility"},"geometry":{"type":"Point","coordinates":[129.1442999052734,35.18596141308593]}},{"type":"Feature","properties":{"code":"26380","name":"사하구","full_name":"부산광역시 사하구","sido_code":"26","sgg_code":"26380","admin_level":"sgg","source":"vuski/admdongkor","source_version":"ver20260701","label_method":"largest-part pole_of_inaccessibility"},"geometry":{"type":"Point","coordinates":[128.9703354760742,35.0929607524414]}},{"type":"Feature","properties":{"code":"26410","name":"금정구","full_name":"부산광역시 금정구","sido_code":"26","sgg_code":"26410","admin_level":"sgg","source":"vuski/admdongkor","source_version":"ver20260701","label_method":"largest-part pole_of_inaccessibility"},"geometry":{"type":"Point","coordinates":[129.08592819580082,35.25890002197265]}},{"type":"Feature","properties":{"code":"26440","name":"강서구","full_name":"부산광역시 강서구","sido_code":"26","sgg_code":"26440","admin_level":"sgg","source":"vuski/admdongkor","source_version":"ver20260701","label_method":"largest-part pole_of_inaccessibility"},"geometry":{"type":"Point","coordinates":[128.9211345114746,35.16720910375976]}},{"type":"Feature","properties":{"code":"26470","name":"연제구","full_name":"부산광역시 연제구","sido_code":"26","sgg_code":"26470","admin_level":"sgg","source":"vuski/admdongkor","source_version":"ver20260701","label_method":"largest-part pole_of_inaccessibility"},"geometry":{"type":"Point","coordinates":[129.08632513476564,35.182814123046874]}},{"type":"Feature","properties":{"code":"26500","name":"수영구","full_name":"부산광역시 수영구","sido_code":"26","sgg_code":"26500","admin_level":"sgg","source":"vuski/admdongkor","source_version":"ver20260701","label_method":"largest-part pole_of_inaccessibility"},"geometry":{"type":"Point","coordinates":[129.10977640039064,35.16282256445313]}},{"type":"Feature","properties":{"code":"26530","name":"사상구","full_name":"부산광역시 사상구","sido_code":"26","sgg_code":"26530","admin_level":"sgg","source":"vuski/admdongkor","source_version":"ver20260701","label_method":"largest-part pole_of_inaccessibility"},"geometry":{"type":"Point","coordinates":[128.98621507177737,35.15617121435547]}},{"type":"Feature","properties":{"code":"26710","name":"기장군","full_name":"부산광역시 기장군","sido_code":"26","sgg_code":"26710","admin_level":"sgg","source":"vuski/admdongkor","source_version":"ver20260701","label_method":"largest-part pole_of_inaccessibility"},"geometry":{"type":"Point","coordinates":[129.1870926589356,35.29497088256835]}},{"type":"Feature","properties":{"code":"27110","name":"중구","full_name":"대구광역시 중구","sido_code":"27","sgg_code":"27110","admin_level":"sgg","source":"vuski/admdongkor","source_version":"ver20260701","label_method":"largest-part pole_of_inaccessibility"},"geometry":{"type":"Point","coordinates":[128.58923583789064,35.86666225976563]}},{"type":"Feature","properties":{"code":"27140","name":"동구","full_name":"대구광역시 동구","sido_code":"27","sgg_code":"27140","admin_level":"sgg","source":"vuski/admdongkor","source_version":"ver20260701","label_method":"largest-part pole_of_inaccessibility"},"geometry":{"type":"Point","coordinates":[128.68260134179684,35.95543164257812]}},{"type":"Feature","properties":{"code":"27170","name":"서구","full_name":"대구광역시 서구","sido_code":"27","sgg_code":"27170","admin_level":"sgg","source":"vuski/admdongkor","source_version":"ver20260701","label_method":"largest-part pole_of_inaccessibility"},"geometry":{"type":"Point","coordinates":[128.54994699218747,35.87377003906249]}},{"type":"Feature","properties":{"code":"27200","name":"남구","full_name":"대구광역시 남구","sido_code":"27","sgg_code":"27200","admin_level":"sgg","source":"vuski/admdongkor","source_version":"ver20260701","label_method":"largest-part pole_of_inaccessibility"},"geometry":{"type":"Point","coordinates":[128.58624488378905,35.835861192382815]}},{"type":"Feature","properties":{"code":"27230","name":"북구","full_name":"대구광역시 북구","sido_code":"27","sgg_code":"27230","admin_level":"sgg","source":"vuski/admdongkor","source_version":"ver20260701","label_method":"largest-part pole_of_inaccessibility"},"geometry":{"type":"Point","coordinates":[128.58252920507812,35.92998520898438]}},{"type":"Feature","properties":{"code":"27260","name":"수성구","full_name":"대구광역시 수성구","sido_code":"27","sgg_code":"27260","admin_level":"sgg","source":"vuski/admdongkor","source_version":"ver20260701","label_method":"largest-part pole_of_inaccessibility"},"geometry":{"type":"Point","coordinates":[128.65216435205076,35.83902637158202]}},{"type":"Feature","properties":{"code":"27290","name":"달서구","full_name":"대구광역시 달서구","sido_code":"27","sgg_code":"27290","admin_level":"sgg","source":"vuski/admdongkor","source_version":"ver20260701","label_method":"largest-part pole_of_inaccessibility"},"geometry":{"type":"Point","coordinates":[128.5140693540039,35.839838092285156]}},{"type":"Feature","properties":{"code":"27710","name":"달성군","full_name":"대구광역시 달성군","sido_code":"27","sgg_code":"27710","admin_level":"sgg","source":"vuski/admdongkor","source_version":"ver20260701","label_method":"largest-part pole_of_inaccessibility"},"geometry":{"type":"Point","coordinates":[128.4837266064453,35.75139425488281]}},{"type":"Feature","properties":{"code":"27720","name":"군위군","full_name":"대구광역시 군위군","sido_code":"27","sgg_code":"27720","admin_level":"sgg","source":"vuski/admdongkor","source_version":"ver20260701","label_method":"largest-part pole_of_inaccessibility"},"geometry":{"type":"Point","coordinates":[128.67052823608395,36.13620958032226]}},{"type":"Feature","properties":{"code":"28125","name":"제물포구","full_name":"인천광역시 제물포구","sido_code":"28","sgg_code":"28125","admin_level":"sgg","source":"vuski/admdongkor","source_version":"ver20260701","label_method":"largest-part pole_of_inaccessibility"},"geometry":{"type":"Point","coordinates":[126.62960788427736,37.473939661621095]}},{"type":"Feature","properties":{"code":"28155","name":"영종구","full_name":"인천광역시 영종구","sido_code":"28","sgg_code":"28155","admin_level":"sgg","source":"vuski/admdongkor","source_version":"ver20260701","label_method":"largest-part pole_of_inaccessibility"},"geometry":{"type":"Point","coordinates":[126.43918007617185,37.463617388671885]}},{"type":"Feature","properties":{"code":"28177","name":"미추홀구","full_name":"인천광역시 미추홀구","sido_code":"28","sgg_code":"28177","admin_level":"sgg","source":"vuski/admdongkor","source_version":"ver20260701","label_method":"largest-part pole_of_inaccessibility"},"geometry":{"type":"Point","coordinates":[126.66843624511718,37.45533496582032]}},{"type":"Feature","properties":{"code":"28185","name":"연수구","full_name":"인천광역시 연수구","sido_code":"28","sgg_code":"28185","admin_level":"sgg","source":"vuski/admdongkor","source_version":"ver20260701","label_method":"largest-part pole_of_inaccessibility"},"geometry":{"type":"Point","coordinates":[126.63947775585937,37.400797482421886]}},{"type":"Feature","properties":{"code":"28200","name":"남동구","full_name":"인천광역시 남동구","sido_code":"28","sgg_code":"28200","admin_level":"sgg","source":"vuski/admdongkor","source_version":"ver20260701","label_method":"largest-part pole_of_inaccessibility"},"geometry":{"type":"Point","coordinates":[126.73294803124999,37.44056940625]}},{"type":"Feature","properties":{"code":"28237","name":"부평구","full_name":"인천광역시 부평구","sido_code":"28","sgg_code":"28237","admin_level":"sgg","source":"vuski/admdongkor","source_version":"ver20260701","label_method":"largest-part pole_of_inaccessibility"},"geometry":{"type":"Point","coordinates":[126.7199782158203,37.50077844433593]}},{"type":"Feature","properties":{"code":"28245","name":"계양구","full_name":"인천광역시 계양구","sido_code":"28","sgg_code":"28245","admin_level":"sgg","source":"vuski/admdongkor","source_version":"ver20260701","label_method":"largest-part pole_of_inaccessibility"},"geometry":{"type":"Point","coordinates":[126.73827024999999,37.556442249999996]}},{"type":"Feature","properties":{"code":"28275","name":"서해구","full_name":"인천광역시 서해구","sido_code":"28","sgg_code":"28275","admin_level":"sgg","source":"vuski/admdongkor","source_version":"ver20260701","label_method":"largest-part pole_of_inaccessibility"},"geometry":{"type":"Point","coordinates":[126.64931294238282,37.537499749023446]}},{"type":"Feature","properties":{"code":"28290","name":"검단구","full_name":"인천광역시 검단구","sido_code":"28","sgg_code":"28290","admin_level":"sgg","source":"vuski/admdongkor","source_version":"ver20260701","label_method":"largest-part pole_of_inaccessibility"},"geometry":{"type":"Point","coordinates":[126.65879635961916,37.60151436059571]}},{"type":"Feature","properties":{"code":"28710","name":"강화군","full_name":"인천광역시 강화군","sido_code":"28","sgg_code":"28710","admin_level":"sgg","source":"vuski/admdongkor","source_version":"ver20260701","label_method":"largest-part pole_of_inaccessibility"},"geometry":{"type":"Point","coordinates":[126.44662732495118,37.731162804443365]}},{"type":"Feature","properties":{"code":"28720","name":"옹진군","full_name":"인천광역시 옹진군","sido_code":"28","sgg_code":"28720","admin_level":"sgg","source":"vuski/admdongkor","source_version":"ver20260701","label_method":"largest-part pole_of_inaccessibility"},"geometry":{"type":"Point","coordinates":[124.67798142675782,37.95059734082031]}},{"type":"Feature","properties":{"code":"30110","name":"동구","full_name":"대전광역시 동구","sido_code":"30","sgg_code":"30110","admin_level":"sgg","source":"vuski/admdongkor","source_version":"ver20260701","label_method":"largest-part pole_of_inaccessibility"},"geometry":{"type":"Point","coordinates":[127.49266848730467,36.37696288378906]}},{"type":"Feature","properties":{"code":"30140","name":"중구","full_name":"대전광역시 중구","sido_code":"30","sgg_code":"30140","admin_level":"sgg","source":"vuski/admdongkor","source_version":"ver20260701","label_method":"largest-part pole_of_inaccessibility"},"geometry":{"type":"Point","coordinates":[127.40483734375002,36.285259218749985]}},{"type":"Feature","properties":{"code":"30170","name":"서구","full_name":"대전광역시 서구","sido_code":"30","sgg_code":"30170","admin_level":"sgg","source":"vuski/admdongkor","source_version":"ver20260701","label_method":"largest-part pole_of_inaccessibility"},"geometry":{"type":"Point","coordinates":[127.32970678149415,36.25015693139648]}},{"type":"Feature","properties":{"code":"30200","name":"유성구","full_name":"대전광역시 유성구","sido_code":"30","sgg_code":"30200","admin_level":"sgg","source":"vuski/admdongkor","source_version":"ver20260701","label_method":"largest-part pole_of_inaccessibility"},"geometry":{"type":"Point","coordinates":[127.32080852490235,36.37997553857423]}},{"type":"Feature","properties":{"code":"30230","name":"대덕구","full_name":"대전광역시 대덕구","sido_code":"30","sgg_code":"30230","admin_level":"sgg","source":"vuski/admdongkor","source_version":"ver20260701","label_method":"largest-part pole_of_inaccessibility"},"geometry":{"type":"Point","coordinates":[127.44275607763674,36.424453024902355]}},{"type":"Feature","properties":{"code":"31110","name":"중구","full_name":"울산광역시 중구","sido_code":"31","sgg_code":"31110","admin_level":"sgg","source":"vuski/admdongkor","source_version":"ver20260701","label_method":"largest-part pole_of_inaccessibility"},"geometry":{"type":"Point","coordinates":[129.32654765722663,35.57298311425781]}},{"type":"Feature","properties":{"code":"31140","name":"남구","full_name":"울산광역시 남구","sido_code":"31","sgg_code":"31140","admin_level":"sgg","source":"vuski/admdongkor","source_version":"ver20260701","label_method":"largest-part pole_of_inaccessibility"},"geometry":{"type":"Point","coordinates":[129.33450359692384,35.51863563403321]}},{"type":"Feature","properties":{"code":"31170","name":"동구","full_name":"울산광역시 동구","sido_code":"31","sgg_code":"31170","admin_level":"sgg","source":"vuski/admdongkor","source_version":"ver20260701","label_method":"largest-part pole_of_inaccessibility"},"geometry":{"type":"Point","coordinates":[129.42887039794923,35.53669752392578]}},{"type":"Feature","properties":{"code":"31200","name":"북구","full_name":"울산광역시 북구","sido_code":"31","sgg_code":"31200","admin_level":"sgg","source":"vuski/admdongkor","source_version":"ver20260701","label_method":"largest-part pole_of_inaccessibility"},"geometry":{"type":"Point","coordinates":[129.3964290693359,35.60888161816407]}},{"type":"Feature","properties":{"code":"31710","name":"울주군","full_name":"울산광역시 울주군","sido_code":"31","sgg_code":"31710","admin_level":"sgg","source":"vuski/admdongkor","source_version":"ver20260701","label_method":"largest-part pole_of_inaccessibility"},"geometry":{"type":"Point","coordinates":[129.15188714501954,35.57957371630861]}},{"type":"Feature","properties":{"code":"36110","name":"세종시","full_name":"세종특별자치시 세종시","sido_code":"36","sgg_code":"36110","admin_level":"sgg","source":"vuski/admdongkor","source_version":"ver20260701","label_method":"largest-part pole_of_inaccessibility"},"geometry":{"type":"Point","coordinates":[127.27676676367187,36.503162947265636]}},{"type":"Feature","properties":{"code":"41111","name":"수원시장안구","full_name":"경기도 수원시장안구","sido_code":"41","sgg_code":"41111","admin_level":"sgg","source":"vuski/admdongkor","source_version":"ver20260701","label_method":"largest-part pole_of_inaccessibility"},"geometry":{"type":"Point","coordinates":[127.00742606054685,37.313768302734374]}},{"type":"Feature","properties":{"code":"41113","name":"수원시권선구","full_name":"경기도 수원시권선구","sido_code":"41","sgg_code":"41113","admin_level":"sgg","source":"vuski/admdongkor","source_version":"ver20260701","label_method":"largest-part pole_of_inaccessibility"},"geometry":{"type":"Point","coordinates":[126.97865245605468,37.25420447363281]}},{"type":"Feature","properties":{"code":"41115","name":"수원시팔달구","full_name":"경기도 수원시팔달구","sido_code":"41","sgg_code":"41115","admin_level":"sgg","source":"vuski/admdongkor","source_version":"ver20260701","label_method":"largest-part pole_of_inaccessibility"},"geometry":{"type":"Point","coordinates":[127.02492133496094,37.27598699707032]}},{"type":"Feature","properties":{"code":"41117","name":"수원시영통구","full_name":"경기도 수원시영통구","sido_code":"41","sgg_code":"41117","admin_level":"sgg","source":"vuski/admdongkor","source_version":"ver20260701","label_method":"largest-part pole_of_inaccessibility"},"geometry":{"type":"Point","coordinates":[127.05716818505859,37.256847131347655]}},{"type":"Feature","properties":{"code":"41131","name":"성남시수정구","full_name":"경기도 성남시수정구","sido_code":"41","sgg_code":"41131","admin_level":"sgg","source":"vuski/admdongkor","source_version":"ver20260701","label_method":"largest-part pole_of_inaccessibility"},"geometry":{"type":"Point","coordinates":[127.09851529394533,37.428712690429684]}},{"type":"Feature","properties":{"code":"41133","name":"성남시중원구","full_name":"경기도 성남시중원구","sido_code":"41","sgg_code":"41133","admin_level":"sgg","source":"vuski/admdongkor","source_version":"ver20260701","label_method":"largest-part pole_of_inaccessibility"},"geometry":{"type":"Point","coordinates":[127.173935828125,37.434974703125]}},{"type":"Feature","properties":{"code":"41135","name":"성남시분당구","full_name":"경기도 성남시분당구","sido_code":"41","sgg_code":"41135","admin_level":"sgg","source":"vuski/admdongkor","source_version":"ver20260701","label_method":"largest-part pole_of_inaccessibility"},"geometry":{"type":"Point","coordinates":[127.10717532031249,37.375146835937514]}},{"type":"Feature","properties":{"code":"41150","name":"의정부시","full_name":"경기도 의정부시","sido_code":"41","sgg_code":"41150","admin_level":"sgg","source":"vuski/admdongkor","source_version":"ver20260701","label_method":"largest-part pole_of_inaccessibility"},"geometry":{"type":"Point","coordinates":[127.05787439404295,37.72702617431641]}},{"type":"Feature","properties":{"code":"41171","name":"안양시만안구","full_name":"경기도 안양시만안구","sido_code":"41","sgg_code":"41171","admin_level":"sgg","source":"vuski/admdongkor","source_version":"ver20260701","label_method":"largest-part pole_of_inaccessibility"},"geometry":{"type":"Point","coordinates":[126.90524848437502,37.39637014062501]}},{"type":"Feature","properties":{"code":"41173","name":"안양시동안구","full_name":"경기도 안양시동안구","sido_code":"41","sgg_code":"41173","admin_level":"sgg","source":"vuski/admdongkor","source_version":"ver20260701","label_method":"largest-part pole_of_inaccessibility"},"geometry":{"type":"Point","coordinates":[126.95784679736327,37.40112282177735]}},{"type":"Feature","properties":{"code":"41192","name":"부천시원미구","full_name":"경기도 부천시원미구","sido_code":"41","sgg_code":"41192","admin_level":"sgg","source":"vuski/admdongkor","source_version":"ver20260701","label_method":"largest-part pole_of_inaccessibility"},"geometry":{"type":"Point","coordinates":[126.77743080273436,37.50006417382812]}},{"type":"Feature","properties":{"code":"41194","name":"부천시소사구","full_name":"경기도 부천시소사구","sido_code":"41","sgg_code":"41194","admin_level":"sgg","source":"vuski/admdongkor","source_version":"ver20260701","label_method":"largest-part pole_of_inaccessibility"},"geometry":{"type":"Point","coordinates":[126.80494087060546,37.472566759277335]}},{"type":"Feature","properties":{"code":"41196","name":"부천시오정구","full_name":"경기도 부천시오정구","sido_code":"41","sgg_code":"41196","admin_level":"sgg","source":"vuski/admdongkor","source_version":"ver20260701","label_method":"largest-part pole_of_inaccessibility"},"geometry":{"type":"Point","coordinates":[126.81010916992189,37.52534520898437]}},{"type":"Feature","properties":{"code":"41210","name":"광명시","full_name":"경기도 광명시","sido_code":"41","sgg_code":"41210","admin_level":"sgg","source":"vuski/admdongkor","source_version":"ver20260701","label_method":"largest-part pole_of_inaccessibility"},"geometry":{"type":"Point","coordinates":[126.86763915332034,37.43799274511718]}},{"type":"Feature","properties":{"code":"41220","name":"평택시","full_name":"경기도 평택시","sido_code":"41","sgg_code":"41220","admin_level":"sgg","source":"vuski/admdongkor","source_version":"ver20260701","label_method":"largest-part pole_of_inaccessibility"},"geometry":{"type":"Point","coordinates":[127.03642728112791,37.00905817004394]}},{"type":"Feature","properties":{"code":"41250","name":"동두천시","full_name":"경기도 동두천시","sido_code":"41","sgg_code":"41250","admin_level":"sgg","source":"vuski/admdongkor","source_version":"ver20260701","label_method":"largest-part pole_of_inaccessibility"},"geometry":{"type":"Point","coordinates":[127.06200903222656,37.927953692382815]}},{"type":"Feature","properties":{"code":"41271","name":"안산시상록구","full_name":"경기도 안산시상록구","sido_code":"41","sgg_code":"41271","admin_level":"sgg","source":"vuski/admdongkor","source_version":"ver20260701","label_method":"largest-part pole_of_inaccessibility"},"geometry":{"type":"Point","coordinates":[126.86366740527343,37.30122673339843]}},{"type":"Feature","properties":{"code":"41273","name":"안산시단원구","full_name":"경기도 안산시단원구","sido_code":"41","sgg_code":"41273","admin_level":"sgg","source":"vuski/admdongkor","source_version":"ver20260701","label_method":"largest-part pole_of_inaccessibility"},"geometry":{"type":"Point","coordinates":[126.81345367773437,37.32849042773438]}},{"type":"Feature","properties":{"code":"41281","name":"고양시덕양구","full_name":"경기도 고양시덕양구","sido_code":"41","sgg_code":"41281","admin_level":"sgg","source":"vuski/admdongkor","source_version":"ver20260701","label_method":"largest-part pole_of_inaccessibility"},"geometry":{"type":"Point","coordinates":[126.86129636279298,37.63563889794922]}},{"type":"Feature","properties":{"code":"41285","name":"고양시일산동구","full_name":"경기도 고양시일산동구","sido_code":"41","sgg_code":"41285","admin_level":"sgg","source":"vuski/admdongkor","source_version":"ver20260701","label_method":"largest-part pole_of_inaccessibility"},"geometry":{"type":"Point","coordinates":[126.80873666943359,37.69635054052733]}},{"type":"Feature","properties":{"code":"41287","name":"고양시일산서구","full_name":"경기도 고양시일산서구","sido_code":"41","sgg_code":"41287","admin_level":"sgg","source":"vuski/admdongkor","source_version":"ver20260701","label_method":"largest-part pole_of_inaccessibility"},"geometry":{"type":"Point","coordinates":[126.72463884570311,37.67580977539063]}},{"type":"Feature","properties":{"code":"41290","name":"과천시","full_name":"경기도 과천시","sido_code":"41","sgg_code":"41290","admin_level":"sgg","source":"vuski/admdongkor","source_version":"ver20260701","label_method":"largest-part pole_of_inaccessibility"},"geometry":{"type":"Point","coordinates":[126.99662439013673,37.43426284228515]}},{"type":"Feature","properties":{"code":"41310","name":"구리시","full_name":"경기도 구리시","sido_code":"41","sgg_code":"41310","admin_level":"sgg","source":"vuski/admdongkor","source_version":"ver20260701","label_method":"largest-part pole_of_inaccessibility"},"geometry":{"type":"Point","coordinates":[127.13623771142579,37.58778146240235]}},{"type":"Feature","properties":{"code":"41360","name":"남양주시","full_name":"경기도 남양주시","sido_code":"41","sgg_code":"41360","admin_level":"sgg","source":"vuski/admdongkor","source_version":"ver20260701","label_method":"largest-part pole_of_inaccessibility"},"geometry":{"type":"Point","coordinates":[127.26235340454102,37.66425813208007]}},{"type":"Feature","properties":{"code":"41370","name":"오산시","full_name":"경기도 오산시","sido_code":"41","sgg_code":"41370","admin_level":"sgg","source":"vuski/admdongkor","source_version":"ver20260701","label_method":"largest-part pole_of_inaccessibility"},"geometry":{"type":"Point","coordinates":[127.05284341308594,37.15564839355468]}},{"type":"Feature","properties":{"code":"41390","name":"시흥시","full_name":"경기도 시흥시","sido_code":"41","sgg_code":"41390","admin_level":"sgg","source":"vuski/admdongkor","source_version":"ver20260701","label_method":"largest-part pole_of_inaccessibility"},"geometry":{"type":"Point","coordinates":[126.8041309140625,37.40154522656251]}},{"type":"Feature","properties":{"code":"41410","name":"군포시","full_name":"경기도 군포시","sido_code":"41","sgg_code":"41410","admin_level":"sgg","source":"vuski/admdongkor","source_version":"ver20260701","label_method":"largest-part pole_of_inaccessibility"},"geometry":{"type":"Point","coordinates":[126.92446904296875,37.342924175781256]}},{"type":"Feature","properties":{"code":"41430","name":"의왕시","full_name":"경기도 의왕시","sido_code":"41","sgg_code":"41430","admin_level":"sgg","source":"vuski/admdongkor","source_version":"ver20260701","label_method":"largest-part pole_of_inaccessibility"},"geometry":{"type":"Point","coordinates":[126.99176048828124,37.36472619921875]}},{"type":"Feature","properties":{"code":"41450","name":"하남시","full_name":"경기도 하남시","sido_code":"41","sgg_code":"41450","admin_level":"sgg","source":"vuski/admdongkor","source_version":"ver20260701","label_method":"largest-part pole_of_inaccessibility"},"geometry":{"type":"Point","coordinates":[127.21057013208008,37.519602033935556]}},{"type":"Feature","properties":{"code":"41461","name":"용인시처인구","full_name":"경기도 용인시처인구","sido_code":"41","sgg_code":"41461","admin_level":"sgg","source":"vuski/admdongkor","source_version":"ver20260701","label_method":"largest-part pole_of_inaccessibility"},"geometry":{"type":"Point","coordinates":[127.23262720703126,37.21854277734374]}},{"type":"Feature","properties":{"code":"41463","name":"용인시기흥구","full_name":"경기도 용인시기흥구","sido_code":"41","sgg_code":"41463","admin_level":"sgg","source":"vuski/admdongkor","source_version":"ver20260701","label_method":"largest-part pole_of_inaccessibility"},"geometry":{"type":"Point","coordinates":[127.12587474658203,37.27426328564454]}},{"type":"Feature","properties":{"code":"41465","name":"용인시수지구","full_name":"경기도 용인시수지구","sido_code":"41","sgg_code":"41465","admin_level":"sgg","source":"vuski/admdongkor","source_version":"ver20260701","label_method":"largest-part pole_of_inaccessibility"},"geometry":{"type":"Point","coordinates":[127.05853162988281,37.337694508789056]}},{"type":"Feature","properties":{"code":"41480","name":"파주시","full_name":"경기도 파주시","sido_code":"41","sgg_code":"41480","admin_level":"sgg","source":"vuski/admdongkor","source_version":"ver20260701","label_method":"largest-part pole_of_inaccessibility"},"geometry":{"type":"Point","coordinates":[126.79841865026854,37.85227066467285]}},{"type":"Feature","properties":{"code":"41500","name":"이천시","full_name":"경기도 이천시","sido_code":"41","sgg_code":"41500","admin_level":"sgg","source":"vuski/admdongkor","source_version":"ver20260701","label_method":"largest-part pole_of_inaccessibility"},"geometry":{"type":"Point","coordinates":[127.44577606518557,37.25736216088869]}},{"type":"Feature","properties":{"code":"41550","name":"안성시","full_name":"경기도 안성시","sido_code":"41","sgg_code":"41550","admin_level":"sgg","source":"vuski/admdongkor","source_version":"ver20260701","label_method":"largest-part pole_of_inaccessibility"},"geometry":{"type":"Point","coordinates":[127.268024689209,37.02008814038086]}},{"type":"Feature","properties":{"code":"41570","name":"김포시","full_name":"경기도 김포시","sido_code":"41","sgg_code":"41570","admin_level":"sgg","source":"vuski/admdongkor","source_version":"ver20260701","label_method":"largest-part pole_of_inaccessibility"},"geometry":{"type":"Point","coordinates":[126.599314909668,37.68633344189453]}},{"type":"Feature","properties":{"code":"41591","name":"화성시만세구","full_name":"경기도 화성시만세구","sido_code":"41","sgg_code":"41591","admin_level":"sgg","source":"vuski/admdongkor","source_version":"ver20260701","label_method":"largest-part pole_of_inaccessibility"},"geometry":{"type":"Point","coordinates":[126.86962223388674,37.122566482910145]}},{"type":"Feature","properties":{"code":"41593","name":"화성시효행구","full_name":"경기도 화성시효행구","sido_code":"41","sgg_code":"41593","admin_level":"sgg","source":"vuski/admdongkor","source_version":"ver20260701","label_method":"largest-part pole_of_inaccessibility"},"geometry":{"type":"Point","coordinates":[126.89525909472657,37.24005843261718]}},{"type":"Feature","properties":{"code":"41595","name":"화성시병점구","full_name":"경기도 화성시병점구","sido_code":"41","sgg_code":"41595","admin_level":"sgg","source":"vuski/admdongkor","source_version":"ver20260701","label_method":"largest-part pole_of_inaccessibility"},"geometry":{"type":"Point","coordinates":[127.034635734375,37.215547609375]}},{"type":"Feature","properties":{"code":"41597","name":"화성시동탄구","full_name":"경기도 화성시동탄구","sido_code":"41","sgg_code":"41597","admin_level":"sgg","source":"vuski/admdongkor","source_version":"ver20260701","label_method":"largest-part pole_of_inaccessibility"},"geometry":{"type":"Point","coordinates":[127.10747158935547,37.18791151416016]}},{"type":"Feature","properties":{"code":"41610","name":"광주시","full_name":"경기도 광주시","sido_code":"41","sgg_code":"41610","admin_level":"sgg","source":"vuski/admdongkor","source_version":"ver20260701","label_method":"largest-part pole_of_inaccessibility"},"geometry":{"type":"Point","coordinates":[127.29886720129394,37.42131028771972]}},{"type":"Feature","properties":{"code":"41630","name":"양주시","full_name":"경기도 양주시","sido_code":"41","sgg_code":"41630","admin_level":"sgg","source":"vuski/admdongkor","source_version":"ver20260701","label_method":"largest-part pole_of_inaccessibility"},"geometry":{"type":"Point","coordinates":[127.0035496513672,37.83347464941407]}},{"type":"Feature","properties":{"code":"41650","name":"포천시","full_name":"경기도 포천시","sido_code":"41","sgg_code":"41650","admin_level":"sgg","source":"vuski/admdongkor","source_version":"ver20260701","label_method":"largest-part pole_of_inaccessibility"},"geometry":{"type":"Point","coordinates":[127.27040855004883,38.00728856616212]}},{"type":"Feature","properties":{"code":"41670","name":"여주시","full_name":"경기도 여주시","sido_code":"41","sgg_code":"41670","admin_level":"sgg","source":"vuski/admdongkor","source_version":"ver20260701","label_method":"largest-part pole_of_inaccessibility"},"geometry":{"type":"Point","coordinates":[127.64919292297365,37.28036520178223]}},{"type":"Feature","properties":{"code":"41800","name":"연천군","full_name":"경기도 연천군","sido_code":"41","sgg_code":"41800","admin_level":"sgg","source":"vuski/admdongkor","source_version":"ver20260701","label_method":"largest-part pole_of_inaccessibility"},"geometry":{"type":"Point","coordinates":[127.06992841345217,38.147807595336914]}},{"type":"Feature","properties":{"code":"41820","name":"가평군","full_name":"경기도 가평군","sido_code":"41","sgg_code":"41820","admin_level":"sgg","source":"vuski/admdongkor","source_version":"ver20260701","label_method":"largest-part pole_of_inaccessibility"},"geometry":{"type":"Point","coordinates":[127.4173821472168,37.82082773120117]}},{"type":"Feature","properties":{"code":"41830","name":"양평군","full_name":"경기도 양평군","sido_code":"41","sgg_code":"41830","admin_level":"sgg","source":"vuski/admdongkor","source_version":"ver20260701","label_method":"largest-part pole_of_inaccessibility"},"geometry":{"type":"Point","coordinates":[127.63355856896972,37.514972722045904]}},{"type":"Feature","properties":{"code":"43111","name":"청주시상당구","full_name":"충청북도 청주시상당구","sido_code":"43","sgg_code":"43111","admin_level":"sgg","source":"vuski/admdongkor","source_version":"ver20260701","label_method":"largest-part pole_of_inaccessibility"},"geometry":{"type":"Point","coordinates":[127.5604666090088,36.606761988891584]}},{"type":"Feature","properties":{"code":"43112","name":"청주시서원구","full_name":"충청북도 청주시서원구","sido_code":"43","sgg_code":"43112","admin_level":"sgg","source":"vuski/admdongkor","source_version":"ver20260701","label_method":"largest-part pole_of_inaccessibility"},"geometry":{"type":"Point","coordinates":[127.4215583544922,36.56623470800781]}},{"type":"Feature","properties":{"code":"43113","name":"청주시흥덕구","full_name":"충청북도 청주시흥덕구","sido_code":"43","sgg_code":"43113","admin_level":"sgg","source":"vuski/admdongkor","source_version":"ver20260701","label_method":"largest-part pole_of_inaccessibility"},"geometry":{"type":"Point","coordinates":[127.36613066748048,36.64930634326172]}},{"type":"Feature","properties":{"code":"43114","name":"청주시청원구","full_name":"충청북도 청주시청원구","sido_code":"43","sgg_code":"43114","admin_level":"sgg","source":"vuski/admdongkor","source_version":"ver20260701","label_method":"largest-part pole_of_inaccessibility"},"geometry":{"type":"Point","coordinates":[127.49985380053711,36.709561125244136]}},{"type":"Feature","properties":{"code":"43130","name":"충주시","full_name":"충청북도 충주시","sido_code":"43","sgg_code":"43130","admin_level":"sgg","source":"vuski/admdongkor","source_version":"ver20260701","label_method":"largest-part pole_of_inaccessibility"},"geometry":{"type":"Point","coordinates":[127.93103031005859,37.00578122119141]}},{"type":"Feature","properties":{"code":"43150","name":"제천시","full_name":"충청북도 제천시","sido_code":"43","sgg_code":"43150","admin_level":"sgg","source":"vuski/admdongkor","source_version":"ver20260701","label_method":"largest-part pole_of_inaccessibility"},"geometry":{"type":"Point","coordinates":[128.1606057409668,37.12380267211914]}},{"type":"Feature","properties":{"code":"43720","name":"보은군","full_name":"충청북도 보은군","sido_code":"43","sgg_code":"43720","admin_level":"sgg","source":"vuski/admdongkor","source_version":"ver20260701","label_method":"largest-part pole_of_inaccessibility"},"geometry":{"type":"Point","coordinates":[127.76917775781251,36.4906105546875]}},{"type":"Feature","properties":{"code":"43730","name":"옥천군","full_name":"충청북도 옥천군","sido_code":"43","sgg_code":"43730","admin_level":"sgg","source":"vuski/admdongkor","source_version":"ver20260701","label_method":"largest-part pole_of_inaccessibility"},"geometry":{"type":"Point","coordinates":[127.62189022033692,36.31318843322754]}},{"type":"Feature","properties":{"code":"43740","name":"영동군","full_name":"충청북도 영동군","sido_code":"43","sgg_code":"43740","admin_level":"sgg","source":"vuski/admdongkor","source_version":"ver20260701","label_method":"largest-part pole_of_inaccessibility"},"geometry":{"type":"Point","coordinates":[127.81024968469238,36.1572641390381]}},{"type":"Feature","properties":{"code":"43745","name":"증평군","full_name":"충청북도 증평군","sido_code":"43","sgg_code":"43745","admin_level":"sgg","source":"vuski/admdongkor","source_version":"ver20260701","label_method":"largest-part pole_of_inaccessibility"},"geometry":{"type":"Point","coordinates":[127.59119381494143,36.796155215332035]}},{"type":"Feature","properties":{"code":"43750","name":"진천군","full_name":"충청북도 진천군","sido_code":"43","sgg_code":"43750","admin_level":"sgg","source":"vuski/admdongkor","source_version":"ver20260701","label_method":"largest-part pole_of_inaccessibility"},"geometry":{"type":"Point","coordinates":[127.46076257128905,36.854727893554696]}},{"type":"Feature","properties":{"code":"43760","name":"괴산군","full_name":"충청북도 괴산군","sido_code":"43","sgg_code":"43760","admin_level":"sgg","source":"vuski/admdongkor","source_version":"ver20260701","label_method":"largest-part pole_of_inaccessibility"},"geometry":{"type":"Point","coordinates":[127.80335315051269,36.76769538220214]}},{"type":"Feature","properties":{"code":"43770","name":"음성군","full_name":"충청북도 음성군","sido_code":"43","sgg_code":"43770","admin_level":"sgg","source":"vuski/admdongkor","source_version":"ver20260701","label_method":"largest-part pole_of_inaccessibility"},"geometry":{"type":"Point","coordinates":[127.57826312426758,36.971613423583996]}},{"type":"Feature","properties":{"code":"43800","name":"단양군","full_name":"충청북도 단양군","sido_code":"43","sgg_code":"43800","admin_level":"sgg","source":"vuski/admdongkor","source_version":"ver20260701","label_method":"largest-part pole_of_inaccessibility"},"geometry":{"type":"Point","coordinates":[128.3674763988037,37.008690856323234]}},{"type":"Feature","properties":{"code":"44131","name":"천안시동남구","full_name":"충청남도 천안시동남구","sido_code":"44","sgg_code":"44131","admin_level":"sgg","source":"vuski/admdongkor","source_version":"ver20260701","label_method":"largest-part pole_of_inaccessibility"},"geometry":{"type":"Point","coordinates":[127.26134161669921,36.782314360839834]}},{"type":"Feature","properties":{"code":"44133","name":"천안시서북구","full_name":"충청남도 천안시서북구","sido_code":"44","sgg_code":"44133","admin_level":"sgg","source":"vuski/admdongkor","source_version":"ver20260701","label_method":"largest-part pole_of_inaccessibility"},"geometry":{"type":"Point","coordinates":[127.15354898559573,36.903127538330075]}},{"type":"Feature","properties":{"code":"44150","name":"공주시","full_name":"충청남도 공주시","sido_code":"44","sgg_code":"44150","admin_level":"sgg","source":"vuski/admdongkor","source_version":"ver20260701","label_method":"largest-part pole_of_inaccessibility"},"geometry":{"type":"Point","coordinates":[127.06852484631348,36.53810094055176]}},{"type":"Feature","properties":{"code":"44180","name":"보령시","full_name":"충청남도 보령시","sido_code":"44","sgg_code":"44180","admin_level":"sgg","source":"vuski/admdongkor","source_version":"ver20260701","label_method":"largest-part pole_of_inaccessibility"},"geometry":{"type":"Point","coordinates":[126.6218163273926,36.251238492431646]}},{"type":"Feature","properties":{"code":"44200","name":"아산시","full_name":"충청남도 아산시","sido_code":"44","sgg_code":"44200","admin_level":"sgg","source":"vuski/admdongkor","source_version":"ver20260701","label_method":"largest-part pole_of_inaccessibility"},"geometry":{"type":"Point","coordinates":[126.98531855651856,36.808184924194336]}},{"type":"Feature","properties":{"code":"44210","name":"서산시","full_name":"충청남도 서산시","sido_code":"44","sgg_code":"44210","admin_level":"sgg","source":"vuski/admdongkor","source_version":"ver20260701","label_method":"largest-part pole_of_inaccessibility"},"geometry":{"type":"Point","coordinates":[126.44554512573242,36.78316873901367]}},{"type":"Feature","properties":{"code":"44230","name":"논산시","full_name":"충청남도 논산시","sido_code":"44","sgg_code":"44230","admin_level":"sgg","source":"vuski/admdongkor","source_version":"ver20260701","label_method":"largest-part pole_of_inaccessibility"},"geometry":{"type":"Point","coordinates":[127.13468160339356,36.18465415393067]}},{"type":"Feature","properties":{"code":"44250","name":"계룡시","full_name":"충청남도 계룡시","sido_code":"44","sgg_code":"44250","admin_level":"sgg","source":"vuski/admdongkor","source_version":"ver20260701","label_method":"largest-part pole_of_inaccessibility"},"geometry":{"type":"Point","coordinates":[127.23049450097656,36.313951838867204]}},{"type":"Feature","properties":{"code":"44270","name":"당진시","full_name":"충청남도 당진시","sido_code":"44","sgg_code":"44270","admin_level":"sgg","source":"vuski/admdongkor","source_version":"ver20260701","label_method":"largest-part pole_of_inaccessibility"},"geometry":{"type":"Point","coordinates":[126.67938607360838,36.899032475463855]}},{"type":"Feature","properties":{"code":"44710","name":"금산군","full_name":"충청남도 금산군","sido_code":"44","sgg_code":"44710","admin_level":"sgg","source":"vuski/admdongkor","source_version":"ver20260701","label_method":"largest-part pole_of_inaccessibility"},"geometry":{"type":"Point","coordinates":[127.47270244262694,36.10941700659181]}},{"type":"Feature","properties":{"code":"44760","name":"부여군","full_name":"충청남도 부여군","sido_code":"44","sgg_code":"44760","admin_level":"sgg","source":"vuski/admdongkor","source_version":"ver20260701","label_method":"largest-part pole_of_inaccessibility"},"geometry":{"type":"Point","coordinates":[126.87215435546875,36.23081307421876]}},{"type":"Feature","properties":{"code":"44770","name":"서천군","full_name":"충청남도 서천군","sido_code":"44","sgg_code":"44770","admin_level":"sgg","source":"vuski/admdongkor","source_version":"ver20260701","label_method":"largest-part pole_of_inaccessibility"},"geometry":{"type":"Point","coordinates":[126.72380855187988,36.09754116833497]}},{"type":"Feature","properties":{"code":"44790","name":"청양군","full_name":"충청남도 청양군","sido_code":"44","sgg_code":"44790","admin_level":"sgg","source":"vuski/admdongkor","source_version":"ver20260701","label_method":"largest-part pole_of_inaccessibility"},"geometry":{"type":"Point","coordinates":[126.80989629870605,36.45477507922363]}},{"type":"Feature","properties":{"code":"44800","name":"홍성군","full_name":"충청남도 홍성군","sido_code":"44","sgg_code":"44800","admin_level":"sgg","source":"vuski/admdongkor","source_version":"ver20260701","label_method":"largest-part pole_of_inaccessibility"},"geometry":{"type":"Point","coordinates":[126.65958010607909,36.548162494750976]}},{"type":"Feature","properties":{"code":"44810","name":"예산군","full_name":"충청남도 예산군","sido_code":"44","sgg_code":"44810","admin_level":"sgg","source":"vuski/admdongkor","source_version":"ver20260701","label_method":"largest-part pole_of_inaccessibility"},"geometry":{"type":"Point","coordinates":[126.8421822919922,36.65061498339844]}},{"type":"Feature","properties":{"code":"44825","name":"태안군","full_name":"충청남도 태안군","sido_code":"44","sgg_code":"44825","admin_level":"sgg","source":"vuski/admdongkor","source_version":"ver20260701","label_method":"largest-part pole_of_inaccessibility"},"geometry":{"type":"Point","coordinates":[126.2333974284668,36.790271796142584]}},{"type":"Feature","properties":{"code":"47111","name":"포항시남구","full_name":"경상북도 포항시남구","sido_code":"47","sgg_code":"47111","admin_level":"sgg","source":"vuski/admdongkor","source_version":"ver20260701","label_method":"largest-part pole_of_inaccessibility"},"geometry":{"type":"Point","coordinates":[129.39570689208983,35.94241337646485]}},{"type":"Feature","properties":{"code":"47113","name":"포항시북구","full_name":"경상북도 포항시북구","sido_code":"47","sgg_code":"47113","admin_level":"sgg","source":"vuski/admdongkor","source_version":"ver20260701","label_method":"largest-part pole_of_inaccessibility"},"geometry":{"type":"Point","coordinates":[129.26862054345702,36.17709694775391]}},{"type":"Feature","properties":{"code":"47130","name":"경주시","full_name":"경상북도 경주시","sido_code":"47","sgg_code":"47130","admin_level":"sgg","source":"vuski/admdongkor","source_version":"ver20260701","label_method":"largest-part pole_of_inaccessibility"},"geometry":{"type":"Point","coordinates":[129.22428436462403,35.84358333898927]}},{"type":"Feature","properties":{"code":"47150","name":"김천시","full_name":"경상북도 김천시","sido_code":"47","sgg_code":"47150","admin_level":"sgg","source":"vuski/admdongkor","source_version":"ver20260701","label_method":"largest-part pole_of_inaccessibility"},"geometry":{"type":"Point","coordinates":[128.14924943261724,36.1389803232422]}},{"type":"Feature","properties":{"code":"47170","name":"안동시","full_name":"경상북도 안동시","sido_code":"47","sgg_code":"47170","admin_level":"sgg","source":"vuski/admdongkor","source_version":"ver20260701","label_method":"largest-part pole_of_inaccessibility"},"geometry":{"type":"Point","coordinates":[128.8413597653809,36.604106376220706]}},{"type":"Feature","properties":{"code":"47190","name":"구미시","full_name":"경상북도 구미시","sido_code":"47","sgg_code":"47190","admin_level":"sgg","source":"vuski/admdongkor","source_version":"ver20260701","label_method":"largest-part pole_of_inaccessibility"},"geometry":{"type":"Point","coordinates":[128.37622457910152,36.16977776074219]}},{"type":"Feature","properties":{"code":"47210","name":"영주시","full_name":"경상북도 영주시","sido_code":"47","sgg_code":"47210","admin_level":"sgg","source":"vuski/admdongkor","source_version":"ver20260701","label_method":"largest-part pole_of_inaccessibility"},"geometry":{"type":"Point","coordinates":[128.5488748466797,36.89220518066407]}},{"type":"Feature","properties":{"code":"47230","name":"영천시","full_name":"경상북도 영천시","sido_code":"47","sgg_code":"47230","admin_level":"sgg","source":"vuski/admdongkor","source_version":"ver20260701","label_method":"largest-part pole_of_inaccessibility"},"geometry":{"type":"Point","coordinates":[128.96669030236814,36.028987030639655]}},{"type":"Feature","properties":{"code":"47250","name":"상주시","full_name":"경상북도 상주시","sido_code":"47","sgg_code":"47250","admin_level":"sgg","source":"vuski/admdongkor","source_version":"ver20260701","label_method":"largest-part pole_of_inaccessibility"},"geometry":{"type":"Point","coordinates":[128.0692271003418,36.40704943481447]}},{"type":"Feature","properties":{"code":"47280","name":"문경시","full_name":"경상북도 문경시","sido_code":"47","sgg_code":"47280","admin_level":"sgg","source":"vuski/admdongkor","source_version":"ver20260701","label_method":"largest-part pole_of_inaccessibility"},"geometry":{"type":"Point","coordinates":[128.20186867956545,36.70355281384276]}},{"type":"Feature","properties":{"code":"47290","name":"경산시","full_name":"경상북도 경산시","sido_code":"47","sgg_code":"47290","admin_level":"sgg","source":"vuski/admdongkor","source_version":"ver20260701","label_method":"largest-part pole_of_inaccessibility"},"geometry":{"type":"Point","coordinates":[128.8122594189453,35.81564699316406]}},{"type":"Feature","properties":{"code":"47730","name":"의성군","full_name":"경상북도 의성군","sido_code":"47","sgg_code":"47730","admin_level":"sgg","source":"vuski/admdongkor","source_version":"ver20260701","label_method":"largest-part pole_of_inaccessibility"},"geometry":{"type":"Point","coordinates":[128.74181047900387,36.32890734326171]}},{"type":"Feature","properties":{"code":"47750","name":"청송군","full_name":"경상북도 청송군","sido_code":"47","sgg_code":"47750","admin_level":"sgg","source":"vuski/admdongkor","source_version":"ver20260701","label_method":"largest-part pole_of_inaccessibility"},"geometry":{"type":"Point","coordinates":[129.0838823828125,36.380283085937506]}},{"type":"Feature","properties":{"code":"47760","name":"영양군","full_name":"경상북도 영양군","sido_code":"47","sgg_code":"47760","admin_level":"sgg","source":"vuski/admdongkor","source_version":"ver20260701","label_method":"largest-part pole_of_inaccessibility"},"geometry":{"type":"Point","coordinates":[129.1192116079102,36.70200517138673]}},{"type":"Feature","properties":{"code":"47770","name":"영덕군","full_name":"경상북도 영덕군","sido_code":"47","sgg_code":"47770","admin_level":"sgg","source":"vuski/admdongkor","source_version":"ver20260701","label_method":"largest-part pole_of_inaccessibility"},"geometry":{"type":"Point","coordinates":[129.32045043981935,36.43911444738768]}},{"type":"Feature","properties":{"code":"47820","name":"청도군","full_name":"경상북도 청도군","sido_code":"47","sgg_code":"47820","admin_level":"sgg","source":"vuski/admdongkor","source_version":"ver20260701","label_method":"largest-part pole_of_inaccessibility"},"geometry":{"type":"Point","coordinates":[128.69750024047852,35.658770201904304]}},{"type":"Feature","properties":{"code":"47830","name":"고령군","full_name":"경상북도 고령군","sido_code":"47","sgg_code":"47830","admin_level":"sgg","source":"vuski/admdongkor","source_version":"ver20260701","label_method":"largest-part pole_of_inaccessibility"},"geometry":{"type":"Point","coordinates":[128.28696428735347,35.722422094970696]}},{"type":"Feature","properties":{"code":"47840","name":"성주군","full_name":"경상북도 성주군","sido_code":"47","sgg_code":"47840","admin_level":"sgg","source":"vuski/admdongkor","source_version":"ver20260701","label_method":"largest-part pole_of_inaccessibility"},"geometry":{"type":"Point","coordinates":[128.24054048803714,35.92000863989258]}},{"type":"Feature","properties":{"code":"47850","name":"칠곡군","full_name":"경상북도 칠곡군","sido_code":"47","sgg_code":"47850","admin_level":"sgg","source":"vuski/admdongkor","source_version":"ver20260701","label_method":"largest-part pole_of_inaccessibility"},"geometry":{"type":"Point","coordinates":[128.42166503320317,36.007681033203134]}},{"type":"Feature","properties":{"code":"47900","name":"예천군","full_name":"경상북도 예천군","sido_code":"47","sgg_code":"47900","admin_level":"sgg","source":"vuski/admdongkor","source_version":"ver20260701","label_method":"largest-part pole_of_inaccessibility"},"geometry":{"type":"Point","coordinates":[128.44302357189937,36.684042805541985]}},{"type":"Feature","properties":{"code":"47920","name":"봉화군","full_name":"경상북도 봉화군","sido_code":"47","sgg_code":"47920","admin_level":"sgg","source":"vuski/admdongkor","source_version":"ver20260701","label_method":"largest-part pole_of_inaccessibility"},"geometry":{"type":"Point","coordinates":[128.9447855614014,36.913648930053704]}},{"type":"Feature","properties":{"code":"47930","name":"울진군","full_name":"경상북도 울진군","sido_code":"47","sgg_code":"47930","admin_level":"sgg","source":"vuski/admdongkor","source_version":"ver20260701","label_method":"largest-part pole_of_inaccessibility"},"geometry":{"type":"Point","coordinates":[129.309870435791,36.969237841064455]}},{"type":"Feature","properties":{"code":"47940","name":"울릉군","full_name":"경상북도 울릉군","sido_code":"47","sgg_code":"47940","admin_level":"sgg","source":"vuski/admdongkor","source_version":"ver20260701","label_method":"largest-part pole_of_inaccessibility"},"geometry":{"type":"Point","coordinates":[130.86033676171874,37.49879988671874]}},{"type":"Feature","properties":{"code":"48121","name":"창원시의창구","full_name":"경상남도 창원시의창구","sido_code":"48","sgg_code":"48121","admin_level":"sgg","source":"vuski/admdongkor","source_version":"ver20260701","label_method":"largest-part pole_of_inaccessibility"},"geometry":{"type":"Point","coordinates":[128.638606713623,35.31593153295898]}},{"type":"Feature","properties":{"code":"48123","name":"창원시성산구","full_name":"경상남도 창원시성산구","sido_code":"48","sgg_code":"48123","admin_level":"sgg","source":"vuski/admdongkor","source_version":"ver20260701","label_method":"largest-part pole_of_inaccessibility"},"geometry":{"type":"Point","coordinates":[128.69507584765626,35.20141881640625]}},{"type":"Feature","properties":{"code":"48125","name":"창원시마산합포구","full_name":"경상남도 창원시마산합포구","sido_code":"48","sgg_code":"48125","admin_level":"sgg","source":"vuski/admdongkor","source_version":"ver20260701","label_method":"largest-part pole_of_inaccessibility"},"geometry":{"type":"Point","coordinates":[128.47338039843746,35.14315766406249]}},{"type":"Feature","properties":{"code":"48127","name":"창원시마산회원구","full_name":"경상남도 창원시마산회원구","sido_code":"48","sgg_code":"48127","admin_level":"sgg","source":"vuski/admdongkor","source_version":"ver20260701","label_method":"largest-part pole_of_inaccessibility"},"geometry":{"type":"Point","coordinates":[128.5111076855469,35.23439699023437]}},{"type":"Feature","properties":{"code":"48129","name":"창원시진해구","full_name":"경상남도 창원시진해구","sido_code":"48","sgg_code":"48129","admin_level":"sgg","source":"vuski/admdongkor","source_version":"ver20260701","label_method":"largest-part pole_of_inaccessibility"},"geometry":{"type":"Point","coordinates":[128.75906200073237,35.13488113598632]}},{"type":"Feature","properties":{"code":"48170","name":"진주시","full_name":"경상남도 진주시","sido_code":"48","sgg_code":"48170","admin_level":"sgg","source":"vuski/admdongkor","source_version":"ver20260701","label_method":"largest-part pole_of_inaccessibility"},"geometry":{"type":"Point","coordinates":[128.09908140258787,35.22313859838869]}},{"type":"Feature","properties":{"code":"48220","name":"통영시","full_name":"경상남도 통영시","sido_code":"48","sgg_code":"48220","admin_level":"sgg","source":"vuski/admdongkor","source_version":"ver20260701","label_method":"largest-part pole_of_inaccessibility"},"geometry":{"type":"Point","coordinates":[128.3933557636719,34.91779406835937]}},{"type":"Feature","properties":{"code":"48240","name":"사천시","full_name":"경상남도 사천시","sido_code":"48","sgg_code":"48240","admin_level":"sgg","source":"vuski/admdongkor","source_version":"ver20260701","label_method":"largest-part pole_of_inaccessibility"},"geometry":{"type":"Point","coordinates":[128.10462295336913,35.03675208715821]}},{"type":"Feature","properties":{"code":"48250","name":"김해시","full_name":"경상남도 김해시","sido_code":"48","sgg_code":"48250","admin_level":"sgg","source":"vuski/admdongkor","source_version":"ver20260701","label_method":"largest-part pole_of_inaccessibility"},"geometry":{"type":"Point","coordinates":[128.81070512988276,35.26341094433594]}},{"type":"Feature","properties":{"code":"48270","name":"밀양시","full_name":"경상남도 밀양시","sido_code":"48","sgg_code":"48270","admin_level":"sgg","source":"vuski/admdongkor","source_version":"ver20260701","label_method":"largest-part pole_of_inaccessibility"},"geometry":{"type":"Point","coordinates":[128.75012106640625,35.46434419921874]}},{"type":"Feature","properties":{"code":"48310","name":"거제시","full_name":"경상남도 거제시","sido_code":"48","sgg_code":"48310","admin_level":"sgg","source":"vuski/admdongkor","source_version":"ver20260701","label_method":"largest-part pole_of_inaccessibility"},"geometry":{"type":"Point","coordinates":[128.65551405456546,34.85697717272948]}},{"type":"Feature","properties":{"code":"48330","name":"양산시","full_name":"경상남도 양산시","sido_code":"48","sgg_code":"48330","admin_level":"sgg","source":"vuski/admdongkor","source_version":"ver20260701","label_method":"largest-part pole_of_inaccessibility"},"geometry":{"type":"Point","coordinates":[129.0388302226562,35.39604960546875]}},{"type":"Feature","properties":{"code":"48720","name":"의령군","full_name":"경상남도 의령군","sido_code":"48","sgg_code":"48720","admin_level":"sgg","source":"vuski/admdongkor","source_version":"ver20260701","label_method":"largest-part pole_of_inaccessibility"},"geometry":{"type":"Point","coordinates":[128.3011697608643,35.43429012487793]}},{"type":"Feature","properties":{"code":"48730","name":"함안군","full_name":"경상남도 함안군","sido_code":"48","sgg_code":"48730","admin_level":"sgg","source":"vuski/admdongkor","source_version":"ver20260701","label_method":"largest-part pole_of_inaccessibility"},"geometry":{"type":"Point","coordinates":[128.4129648834228,35.270531161987314]}},{"type":"Feature","properties":{"code":"48740","name":"창녕군","full_name":"경상남도 창녕군","sido_code":"48","sgg_code":"48740","admin_level":"sgg","source":"vuski/admdongkor","source_version":"ver20260701","label_method":"largest-part pole_of_inaccessibility"},"geometry":{"type":"Point","coordinates":[128.49050399804688,35.548303693359365]}},{"type":"Feature","properties":{"code":"48820","name":"고성군","full_name":"경상남도 고성군","sido_code":"48","sgg_code":"48820","admin_level":"sgg","source":"vuski/admdongkor","source_version":"ver20260701","label_method":"largest-part pole_of_inaccessibility"},"geometry":{"type":"Point","coordinates":[128.27812956530755,35.030539186401356]}},{"type":"Feature","properties":{"code":"48840","name":"남해군","full_name":"경상남도 남해군","sido_code":"48","sgg_code":"48840","admin_level":"sgg","source":"vuski/admdongkor","source_version":"ver20260701","label_method":"largest-part pole_of_inaccessibility"},"geometry":{"type":"Point","coordinates":[128.00195986108398,34.77051286010742]}},{"type":"Feature","properties":{"code":"48850","name":"하동군","full_name":"경상남도 하동군","sido_code":"48","sgg_code":"48850","admin_level":"sgg","source":"vuski/admdongkor","source_version":"ver20260701","label_method":"largest-part pole_of_inaccessibility"},"geometry":{"type":"Point","coordinates":[127.79671501281739,35.13645955236815]}},{"type":"Feature","properties":{"code":"48860","name":"산청군","full_name":"경상남도 산청군","sido_code":"48","sgg_code":"48860","admin_level":"sgg","source":"vuski/admdongkor","source_version":"ver20260701","label_method":"largest-part pole_of_inaccessibility"},"geometry":{"type":"Point","coordinates":[127.88910718945314,35.377467142578126]}},{"type":"Feature","properties":{"code":"48870","name":"함양군","full_name":"경상남도 함양군","sido_code":"48","sgg_code":"48870","admin_level":"sgg","source":"vuski/admdongkor","source_version":"ver20260701","label_method":"largest-part pole_of_inaccessibility"},"geometry":{"type":"Point","coordinates":[127.7323170048828,35.584175030273435]}},{"type":"Feature","properties":{"code":"48880","name":"거창군","full_name":"경상남도 거창군","sido_code":"48","sgg_code":"48880","admin_level":"sgg","source":"vuski/admdongkor","source_version":"ver20260701","label_method":"largest-part pole_of_inaccessibility"},"geometry":{"type":"Point","coordinates":[127.93877317138673,35.75151893701171]}},{"type":"Feature","properties":{"code":"48890","name":"합천군","full_name":"경상남도 합천군","sido_code":"48","sgg_code":"48890","admin_level":"sgg","source":"vuski/admdongkor","source_version":"ver20260701","label_method":"largest-part pole_of_inaccessibility"},"geometry":{"type":"Point","coordinates":[128.10262982727048,35.54781254797362]}},{"type":"Feature","properties":{"code":"50110","name":"제주시","full_name":"제주특별자치도 제주시","sido_code":"50","sgg_code":"50110","admin_level":"sgg","source":"vuski/admdongkor","source_version":"ver20260701","label_method":"largest-part pole_of_inaccessibility"},"geometry":{"type":"Point","coordinates":[126.51126445977782,33.43913433892821]}},{"type":"Feature","properties":{"code":"50130","name":"서귀포시","full_name":"제주특별자치도 서귀포시","sido_code":"50","sgg_code":"50130","admin_level":"sgg","source":"vuski/admdongkor","source_version":"ver20260701","label_method":"largest-part pole_of_inaccessibility"},"geometry":{"type":"Point","coordinates":[126.73266366723634,33.35378417163086]}},{"type":"Feature","properties":{"code":"51110","name":"춘천시","full_name":"강원특별자치도 춘천시","sido_code":"51","sgg_code":"51110","admin_level":"sgg","source":"vuski/admdongkor","source_version":"ver20260701","label_method":"largest-part pole_of_inaccessibility"},"geometry":{"type":"Point","coordinates":[127.72686084765625,37.90450630859375]}},{"type":"Feature","properties":{"code":"51130","name":"원주시","full_name":"강원특별자치도 원주시","sido_code":"51","sgg_code":"51130","admin_level":"sgg","source":"vuski/admdongkor","source_version":"ver20260701","label_method":"largest-part pole_of_inaccessibility"},"geometry":{"type":"Point","coordinates":[127.86279691577148,37.300806514892585]}},{"type":"Feature","properties":{"code":"51150","name":"강릉시","full_name":"강원특별자치도 강릉시","sido_code":"51","sgg_code":"51150","admin_level":"sgg","source":"vuski/admdongkor","source_version":"ver20260701","label_method":"largest-part pole_of_inaccessibility"},"geometry":{"type":"Point","coordinates":[128.8696554887695,37.698147532714835]}},{"type":"Feature","properties":{"code":"51170","name":"동해시","full_name":"강원특별자치도 동해시","sido_code":"51","sgg_code":"51170","admin_level":"sgg","source":"vuski/admdongkor","source_version":"ver20260701","label_method":"largest-part pole_of_inaccessibility"},"geometry":{"type":"Point","coordinates":[129.07595598876952,37.50814644091797]}},{"type":"Feature","properties":{"code":"51190","name":"태백시","full_name":"강원특별자치도 태백시","sido_code":"51","sgg_code":"51190","admin_level":"sgg","source":"vuski/admdongkor","source_version":"ver20260701","label_method":"largest-part pole_of_inaccessibility"},"geometry":{"type":"Point","coordinates":[128.97220939794926,37.14465256298828]}},{"type":"Feature","properties":{"code":"51210","name":"속초시","full_name":"강원특별자치도 속초시","sido_code":"51","sgg_code":"51210","admin_level":"sgg","source":"vuski/admdongkor","source_version":"ver20260701","label_method":"largest-part pole_of_inaccessibility"},"geometry":{"type":"Point","coordinates":[128.5448246550293,38.18202811547851]}},{"type":"Feature","properties":{"code":"51230","name":"삼척시","full_name":"강원특별자치도 삼척시","sido_code":"51","sgg_code":"51230","admin_level":"sgg","source":"vuski/admdongkor","source_version":"ver20260701","label_method":"largest-part pole_of_inaccessibility"},"geometry":{"type":"Point","coordinates":[129.14671069873054,37.277264726074215]}},{"type":"Feature","properties":{"code":"51720","name":"홍천군","full_name":"강원특별자치도 홍천군","sido_code":"51","sgg_code":"51720","admin_level":"sgg","source":"vuski/admdongkor","source_version":"ver20260701","label_method":"largest-part pole_of_inaccessibility"},"geometry":{"type":"Point","coordinates":[128.0535341321411,37.78145474261475]}},{"type":"Feature","properties":{"code":"51730","name":"횡성군","full_name":"강원특별자치도 횡성군","sido_code":"51","sgg_code":"51730","admin_level":"sgg","source":"vuski/admdongkor","source_version":"ver20260701","label_method":"largest-part pole_of_inaccessibility"},"geometry":{"type":"Point","coordinates":[128.13912924169927,37.53618221044922]}},{"type":"Feature","properties":{"code":"51750","name":"영월군","full_name":"강원특별자치도 영월군","sido_code":"51","sgg_code":"51750","admin_level":"sgg","source":"vuski/admdongkor","source_version":"ver20260701","label_method":"largest-part pole_of_inaccessibility"},"geometry":{"type":"Point","coordinates":[128.465054491333,37.208286149780285]}},{"type":"Feature","properties":{"code":"51760","name":"평창군","full_name":"강원특별자치도 평창군","sido_code":"51","sgg_code":"51760","admin_level":"sgg","source":"vuski/admdongkor","source_version":"ver20260701","label_method":"largest-part pole_of_inaccessibility"},"geometry":{"type":"Point","coordinates":[128.43183795080563,37.557861419555664]}},{"type":"Feature","properties":{"code":"51770","name":"정선군","full_name":"강원특별자치도 정선군","sido_code":"51","sgg_code":"51770","admin_level":"sgg","source":"vuski/admdongkor","source_version":"ver20260701","label_method":"largest-part pole_of_inaccessibility"},"geometry":{"type":"Point","coordinates":[128.70710894238283,37.38942336816407]}},{"type":"Feature","properties":{"code":"51780","name":"철원군","full_name":"강원특별자치도 철원군","sido_code":"51","sgg_code":"51780","admin_level":"sgg","source":"vuski/admdongkor","source_version":"ver20260701","label_method":"largest-part pole_of_inaccessibility"},"geometry":{"type":"Point","coordinates":[127.39310174780275,38.22480535375976]}},{"type":"Feature","properties":{"code":"51790","name":"화천군","full_name":"강원특별자치도 화천군","sido_code":"51","sgg_code":"51790","admin_level":"sgg","source":"vuski/admdongkor","source_version":"ver20260701","label_method":"largest-part pole_of_inaccessibility"},"geometry":{"type":"Point","coordinates":[127.71200069628907,38.18402635449218]}},{"type":"Feature","properties":{"code":"51800","name":"양구군","full_name":"강원특별자치도 양구군","sido_code":"51","sgg_code":"51800","admin_level":"sgg","source":"vuski/admdongkor","source_version":"ver20260701","label_method":"largest-part pole_of_inaccessibility"},"geometry":{"type":"Point","coordinates":[127.98531944921875,38.17496951171874]}},{"type":"Feature","properties":{"code":"51810","name":"인제군","full_name":"강원특별자치도 인제군","sido_code":"51","sgg_code":"51810","admin_level":"sgg","source":"vuski/admdongkor","source_version":"ver20260701","label_method":"largest-part pole_of_inaccessibility"},"geometry":{"type":"Point","coordinates":[128.26773597143554,38.02003900268556]}},{"type":"Feature","properties":{"code":"51820","name":"고성군","full_name":"강원특별자치도 고성군","sido_code":"51","sgg_code":"51820","admin_level":"sgg","source":"vuski/admdongkor","source_version":"ver20260701","label_method":"largest-part pole_of_inaccessibility"},"geometry":{"type":"Point","coordinates":[128.40304443676754,38.347166732666025]}},{"type":"Feature","properties":{"code":"51830","name":"양양군","full_name":"강원특별자치도 양양군","sido_code":"51","sgg_code":"51830","admin_level":"sgg","source":"vuski/admdongkor","source_version":"ver20260701","label_method":"largest-part pole_of_inaccessibility"},"geometry":{"type":"Point","coordinates":[128.61109931665038,37.99022650317383]}},{"type":"Feature","properties":{"code":"52111","name":"전주시완산구","full_name":"전북특별자치도 전주시완산구","sido_code":"52","sgg_code":"52111","admin_level":"sgg","source":"vuski/admdongkor","source_version":"ver20260701","label_method":"largest-part pole_of_inaccessibility"},"geometry":{"type":"Point","coordinates":[127.10850694848634,35.78895184497071]}},{"type":"Feature","properties":{"code":"52113","name":"전주시덕진구","full_name":"전북특별자치도 전주시덕진구","sido_code":"52","sgg_code":"52113","admin_level":"sgg","source":"vuski/admdongkor","source_version":"ver20260701","label_method":"largest-part pole_of_inaccessibility"},"geometry":{"type":"Point","coordinates":[127.12349112255859,35.86918260595702]}},{"type":"Feature","properties":{"code":"52130","name":"군산시","full_name":"전북특별자치도 군산시","sido_code":"52","sgg_code":"52130","admin_level":"sgg","source":"vuski/admdongkor","source_version":"ver20260701","label_method":"largest-part pole_of_inaccessibility"},"geometry":{"type":"Point","coordinates":[126.78836625415039,35.968098129150384]}},{"type":"Feature","properties":{"code":"52140","name":"익산시","full_name":"전북특별자치도 익산시","sido_code":"52","sgg_code":"52140","admin_level":"sgg","source":"vuski/admdongkor","source_version":"ver20260701","label_method":"largest-part pole_of_inaccessibility"},"geometry":{"type":"Point","coordinates":[127.00895353906249,36.0139770390625]}},{"type":"Feature","properties":{"code":"52180","name":"정읍시","full_name":"전북특별자치도 정읍시","sido_code":"52","sgg_code":"52180","admin_level":"sgg","source":"vuski/admdongkor","source_version":"ver20260701","label_method":"largest-part pole_of_inaccessibility"},"geometry":{"type":"Point","coordinates":[126.86043612109376,35.58901401171875]}},{"type":"Feature","properties":{"code":"52190","name":"남원시","full_name":"전북특별자치도 남원시","sido_code":"52","sgg_code":"52190","admin_level":"sgg","source":"vuski/admdongkor","source_version":"ver20260701","label_method":"largest-part pole_of_inaccessibility"},"geometry":{"type":"Point","coordinates":[127.43008731811521,35.45191647338867]}},{"type":"Feature","properties":{"code":"52210","name":"김제시","full_name":"전북특별자치도 김제시","sido_code":"52","sgg_code":"52210","admin_level":"sgg","source":"vuski/admdongkor","source_version":"ver20260701","label_method":"largest-part pole_of_inaccessibility"},"geometry":{"type":"Point","coordinates":[126.91704388500976,35.82767545239257]}},{"type":"Feature","properties":{"code":"52710","name":"완주군","full_name":"전북특별자치도 완주군","sido_code":"52","sgg_code":"52710","admin_level":"sgg","source":"vuski/admdongkor","source_version":"ver20260701","label_method":"largest-part pole_of_inaccessibility"},"geometry":{"type":"Point","coordinates":[127.2299311340332,35.96614414428711]}},{"type":"Feature","properties":{"code":"52720","name":"진안군","full_name":"전북특별자치도 진안군","sido_code":"52","sgg_code":"52720","admin_level":"sgg","source":"vuski/admdongkor","source_version":"ver20260701","label_method":"largest-part pole_of_inaccessibility"},"geometry":{"type":"Point","coordinates":[127.40891642944338,35.79627456762695]}},{"type":"Feature","properties":{"code":"52730","name":"무주군","full_name":"전북특별자치도 무주군","sido_code":"52","sgg_code":"52730","admin_level":"sgg","source":"vuski/admdongkor","source_version":"ver20260701","label_method":"largest-part pole_of_inaccessibility"},"geometry":{"type":"Point","coordinates":[127.69005743579103,35.93102661401367]}},{"type":"Feature","properties":{"code":"52740","name":"장수군","full_name":"전북특별자치도 장수군","sido_code":"52","sgg_code":"52740","admin_level":"sgg","source":"vuski/admdongkor","source_version":"ver20260701","label_method":"largest-part pole_of_inaccessibility"},"geometry":{"type":"Point","coordinates":[127.55163189453124,35.68072267578125]}},{"type":"Feature","properties":{"code":"52750","name":"임실군","full_name":"전북특별자치도 임실군","sido_code":"52","sgg_code":"52750","admin_level":"sgg","source":"vuski/admdongkor","source_version":"ver20260701","label_method":"largest-part pole_of_inaccessibility"},"geometry":{"type":"Point","coordinates":[127.21791191796873,35.58997940234375]}},{"type":"Feature","properties":{"code":"52770","name":"순창군","full_name":"전북특별자치도 순창군","sido_code":"52","sgg_code":"52770","admin_level":"sgg","source":"vuski/admdongkor","source_version":"ver20260701","label_method":"largest-part pole_of_inaccessibility"},"geometry":{"type":"Point","coordinates":[127.13397231811523,35.393284482666026]}},{"type":"Feature","properties":{"code":"52790","name":"고창군","full_name":"전북특별자치도 고창군","sido_code":"52","sgg_code":"52790","admin_level":"sgg","source":"vuski/admdongkor","source_version":"ver20260701","label_method":"largest-part pole_of_inaccessibility"},"geometry":{"type":"Point","coordinates":[126.6118098833008,35.4360151274414]}},{"type":"Feature","properties":{"code":"52800","name":"부안군","full_name":"전북특별자치도 부안군","sido_code":"52","sgg_code":"52800","admin_level":"sgg","source":"vuski/admdongkor","source_version":"ver20260701","label_method":"largest-part pole_of_inaccessibility"},"geometry":{"type":"Point","coordinates":[126.6962366418457,35.723169421630864]}}]}
