{
  "features": [
    {
      "geometry": {
        "coordinates": [
          126.9202226294506,
          37.684347490849376
        ],
        "type": "Point"
      },
      "properties": {
        "asset_id": "FDC0_BTB_000001",
        "capacity_mw": "200",
        "current_status": "CURRENT_COMMISSIONED_BTB",
        "dc_voltage_kv": "±120",
        "host_fgn": "FGN0_000191",
        "host_name": "양주",
        "scheme": "양주 VSC BTB",
        "technology": "VSC_MMC"
      },
      "type": "Feature"
    }
  ],
  "type": "FeatureCollection"
}
